{
  "type": "Feature",
  "properties": {
    "name": "MRT-6 (Dhaka Metro Rail Line 6)",
    "operator": "DMTCL",
    "ref": "6",
    "route": "subway"
  },
  "geometry": {
    "type": "LineString",
    "coordinates": [
      [90.3695, 23.8734],
      [90.3795, 23.8671],
      [90.3874, 23.8588],
      [90.3649, 23.8264],
      [90.3682, 23.8166],
      [90.3684, 23.8069],
      [90.3667, 23.8004],
      [90.3638, 23.7937],
      [90.3811, 23.7773],
      [90.3908, 23.7551],
      [90.3936, 23.7502],
      [90.3938, 23.749],
      [90.3955, 23.7389],
      [90.3966, 23.7268],
      [90.4076, 23.7228],
      [90.4225, 23.7281],
      [90.4287, 23.732]
    ]
  }
}
